CCSDS_OEM_VERS = 1.0
CREATION_DATE  = 2017-05-11T11:05:17
ORIGINATOR     = GMAT USER

META_START
OBJECT_NAME          = MOPSSat_alt_35785_km_RAAN_0_123
OBJECT_ID            = SatId
CENTER_NAME          = Earth
REF_FRAME            = EME2000
TIME_SYSTEM          = UTC
START_TIME           = 2017-01-01T00:00:00.000
USEABLE_START_TIME   = 2017-01-01T00:00:00.000
USEABLE_STOP_TIME    = 2017-01-02T00:00:00.000
STOP_TIME            = 2017-01-02T00:00:00.000
INTERPOLATION        = Lagrange
INTERPOLATION_DEGREE = 7 
META_STOP


                                                                                   

2017-01-01T16:48:20.000  -3.487118692760851e+04  -3.418245040958239e+04   1.732684446340272e+00   2.256127880355884e+00  -1.334680107359655e+00  -3.382454947177661e-05
2017-01-01T16:48:30.000  -3.484861967960411e+04  -3.419579135802174e+04   1.732345874974598e+00   2.257321586481353e+00  -1.333509371066965e+00  -3.388972801923530e-05
2017-01-01T16:48:40.000  -3.482604049615400e+04  -3.420912059423963e+04   1.732006651656736e+00   2.258515016160585e+00  -1.332337690746507e+00  -3.395494060717405e-05
2017-01-01T16:48:50.000  -3.480344938000082e+04  -3.422243810880836e+04   1.731666776045951e+00   2.259708168880579e+00  -1.331165065889655e+00  -3.402018723133259e-05
2017-01-01T16:49:00.000  -3.478084633390785e+04  -3.423574389228558e+04   1.731326247801779e+00   2.260901044126595e+00  -1.329991495988234e+00  -3.408546788737456e-05
2017-01-01T16:49:10.000  -3.475823136059102e+04  -3.424903793525508e+04   1.730985066583013e+00   2.262093641385788e+00  -1.328816980530998e+00  -3.415078257108203e-05
2017-01-01T16:49:20.000  -3.473560446274458e+04  -3.426232022831036e+04   1.730643232048062e+00   2.263285960145777e+00  -1.327641519004938e+00  -3.421613127828698e-05
2017-01-01T16:49:30.000  -3.471296564305447e+04  -3.427559076204783e+04   1.730300743855178e+00   2.264477999894000e+00  -1.326465110895992e+00  -3.428151400482712e-05
2017-01-01T16:49:40.000  -3.469031490422536e+04  -3.428884952705089e+04   1.729957601662861e+00   2.265669760116278e+00  -1.325287755690460e+00  -3.434693074646941e-05
2017-01-01T16:49:50.000  -3.466765224899272e+04  -3.430209651388184e+04   1.729613805130019e+00   2.266861240296135e+00  -1.324109452875600e+00  -3.441238149887149e-05
2017-01-01T16:50:00.000  -3.464497768015030e+04  -3.431533171306711e+04   1.729269353916420e+00   2.268052439913410e+00  -1.322930201941083e+00  -3.447786625750574e-05
2017-01-01T16:50:10.000  -3.462229120048092e+04  -3.432855511513715e+04   1.728924247681621e+00   2.269243358447869e+00  -1.321750002375391e+00  -3.454338501785820e-05
2017-01-01T16:50:20.000  -3.459959281305657e+04  -3.434176671045328e+04   1.728578486089584e+00   2.270433995363537e+00  -1.320568853681452e+00  -3.460893777456335e-05
2017-01-01T16:50:30.000  -3.457688252087505e+04  -3.435496648941773e+04   1.728232068803101e+00   2.271624350127688e+00  -1.319386755357708e+00  -3.467452452245219e-05
2017-01-01T16:50:40.000  -3.455416032699497e+04  -3.436815444239545e+04   1.727884995485862e+00   2.272814422203776e+00  -1.318203706905147e+00  -3.474014525616222e-05
2017-01-01T16:50:50.000  -3.453142623401318e+04  -3.438133056001752e+04   1.727537265794476e+00   2.274004211078810e+00  -1.317019707800098e+00  -3.480579997164790e-05
2017-01-01T16:51:00.000  -3.450868024458596e+04  -3.439449483287831e+04   1.727188879386425e+00   2.275193716236046e+00  -1.315834757521361e+00  -3.487148866467363e-05
2017-01-01T16:51:10.000  -3.448592236131112e+04  -3.440764725160445e+04   1.726839835918270e+00   2.276382937161176e+00  -1.314648855544073e+00  -3.493721133115529e-05
2017-01-01T16:51:20.000  -3.446315258702115e+04  -3.442078780668265e+04   1.726490135050088e+00   2.277571873326886e+00  -1.313462001354940e+00  -3.500296796630828e-05
2017-01-01T16:51:30.000  -3.444037092456604e+04  -3.443391648858802e+04   1.726139776442202e+00   2.278760524204330e+00  -1.312274194440967e+00  -3.506875856528062e-05
2017-01-01T16:51:40.000  -3.441757737681267e+04  -3.444703328778329e+04   1.725788759755149e+00   2.279948889263110e+00  -1.311085434289405e+00  -3.513458312315217e-05
2017-01-01T16:51:50.000  -3.439477194686556e+04  -3.446013819459431e+04   1.725437084653144e+00   2.281136967959890e+00  -1.309895720399311e+00  -3.520044163430589e-05
2017-01-01T16:52:00.000  -3.437195463777014e+04  -3.447323119937842e+04   1.725084750799449e+00   2.282324759753749e+00  -1.308705052266029e+00  -3.526633409327554e-05
2017-01-01T16:52:10.000  -3.434912545262948e+04  -3.448631229245797e+04   1.724731757858185e+00   2.283512264100119e+00  -1.307513429387288e+00  -3.533226049441210e-05
2017-01-01T16:52:20.000  -3.432628439408922e+04  -3.449938146441545e+04   1.724378105486372e+00   2.284699480477593e+00  -1.306320851236320e+00  -3.539822083336133e-05
2017-01-01T16:52:30.000  -3.430343146485250e+04  -3.451243870579822e+04   1.724023793341886e+00   2.285886408361113e+00  -1.305127317288728e+00  -3.546421510558627e-05
2017-01-01T16:52:40.000  -3.428056666756379e+04  -3.452548400718549e+04   1.723668821081672e+00   2.287073047228037e+00  -1.303932827016438e+00  -3.553024330669933e-05
2017-01-01T16:52:50.000  -3.425769000510340e+04  -3.453851735901766e+04   1.723313188366248e+00   2.288259396542732e+00  -1.302737379903028e+00  -3.559630543162165e-05
2017-01-01T16:53:00.000  -3.423480148036932e+04  -3.455153875172349e+04   1.722956894856387e+00   2.289445455768017e+00  -1.301540975432383e+00  -3.566240147520309e-05
2017-01-01T16:53:10.000  -3.421190109627652e+04  -3.456454817571946e+04   1.722599940213084e+00   2.290631224365148e+00  -1.300343613088644e+00  -3.572853143222772e-05
2017-01-01T16:53:20.000  -3.418898885597878e+04  -3.457754562128619e+04   1.722242324101074e+00   2.291816701782455e+00  -1.299145292367843e+00  -3.579469529676347e-05
2017-01-01T16:53:30.000  -3.416606476257060e+04  -3.459053107873551e+04   1.721884046184123e+00   2.293001887470660e+00  -1.297946012762279e+00  -3.586089306303266e-05
2017-01-01T16:53:40.000  -3.414312881920671e+04  -3.460350453834307e+04   1.721525106126910e+00   2.294186780876721e+00  -1.296745773766776e+00  -3.592712472506342e-05
2017-01-01T16:53:50.000  -3.412018102857575e+04  -3.461646599064628e+04   1.721165503586795e+00   2.295371381471017e+00  -1.295544574851145e+00  -3.599339027821900e-05
2017-01-01T16:54:00.000  -3.409722139342785e+04  -3.462941542614548e+04   1.720805238222062e+00   2.296555688720085e+00  -1.294342415487781e+00  -3.605968971766473e-05
2017-01-01T16:54:10.000  -3.407424991643852e+04  -3.464235283538132e+04   1.720444309689806e+00   2.297739702093665e+00  -1.293139295144553e+00  -3.612602303876438e-05
2017-01-01T16:54:20.000  -3.405126660057418e+04  -3.465527820872674e+04   1.720082717651611e+00   2.298923421045755e+00  -1.291935213303902e+00  -3.619239023601498e-05
2017-01-01T16:54:30.000  -3.402827144879073e+04  -3.466819153655879e+04   1.719720461768876e+00   2.300106845030240e+00  -1.290730169447097e+00  -3.625879130392674e-05
2017-01-01T16:54:40.000  -3.400526446410082e+04  -3.468109280922021e+04   1.719357541703853e+00   2.301289973497407e+00  -1.289524163057746e+00  -3.632522623682543e-05
2017-01-01T16:54:50.000  -3.398224564955635e+04  -3.469398201703063e+04   1.718993957119412e+00   2.302472805894905e+00  -1.288317193620903e+00  -3.639169502891222e-05
2017-01-01T16:55:00.000  -3.395921500822483e+04  -3.470685915029879e+04   1.718629707678631e+00   2.303655341668909e+00  -1.287109260621810e+00  -3.645819767432254e-05
2017-01-01T16:55:10.000  -3.393617254318124e+04  -3.471972419932712e+04   1.718264793044681e+00   2.304837580264540e+00  -1.285900363545469e+00  -3.652473416715278e-05
2017-01-01T16:55:20.000  -3.391311825742592e+04  -3.473257715445827e+04   1.717899212879537e+00   2.306019521130112e+00  -1.284690501872351e+00  -3.659130450168885e-05
2017-01-01T16:55:30.000  -3.389005215393916e+04  -3.474541800604384e+04   1.717532966844819e+00   2.307201163714290e+00  -1.283479675081239e+00  -3.665790867225693e-05
2017-01-01T16:55:40.000  -3.386697423568117e+04  -3.475824674444455e+04   1.717166054601805e+00   2.308382507466092e+00  -1.282267882649234e+00  -3.672454667322045e-05
2017-01-01T16:55:50.000  -3.384388450553674e+04  -3.477106336006040e+04   1.716798475810525e+00   2.309563551837698e+00  -1.281055124048835e+00  -3.679121849914648e-05
2017-01-01T16:56:00.000  -3.382078296639802e+04  -3.478386784328492e+04   1.716430230131095e+00   2.310744296280228e+00  -1.279841398752293e+00  -3.685792414456059e-05
2017-01-01T16:56:10.000  -3.379766962117305e+04  -3.479666018450094e+04   1.716061317223856e+00   2.311924740243318e+00  -1.278626706232064e+00  -3.692466360392405e-05
2017-01-01T16:56:20.000  -3.377454447280792e+04  -3.480944037406686e+04   1.715691736749699e+00   2.313104883173924e+00  -1.277411045961951e+00  -3.699143687156572e-05
2017-01-01T16:56:30.000  -3.375140752430634e+04  -3.482220840230749e+04   1.715321488370409e+00   2.314284724515399e+00  -1.276194417418157e+00  -3.705824394162964e-05
2017-01-01T16:56:40.000  -3.372825877866105e+04  -3.483496425955109e+04   1.714950571747561e+00   2.315464263710951e+00  -1.274976820075668e+00  -3.712508480827143e-05
2017-01-01T16:56:50.000  -3.370509823916011e+04  -3.484770793596257e+04   1.714578986547469e+00   2.316643500188134e+00  -1.273758253424401e+00  -3.719195946477575e-05
2017-01-01T16:57:00.000  -3.368192590901611e+04  -3.486043942174604e+04   1.714206732435202e+00   2.317822433377647e+00  -1.272538716949664e+00  -3.725886790462551e-05
2017-01-01T16:57:10.000  -3.365874179150401e+04  -3.487315870706923e+04   1.713833809076800e+00   2.319001062706331e+00  -1.271318210139411e+00  -3.732581012110387e-05
2017-01-01T16:57:20.000  -3.363554588942784e+04  -3.488586578235627e+04   1.713460216130706e+00   2.320179387624298e+00  -1.270096732456177e+00  -3.739278610883520e-05
